NORAD_CAT_ID,OBJECT_NAME,OBJECT_TYPE,EPOCH,MEAN_MOTION,ECCENTRICITY,INCLINATION,RA_OF_ASC_NODE,ARG_OF_PERICENTER,MEAN_ANOMALY,BSTAR,MEAN_MOTION_DOT,MEAN_MOTION_DDOT,TLE_LINE0,TLE_LINE1,TLE_LINE2,SEMIMAJOR_AXIS,PERIOD,APOGEE,PERIGEE,DECAYED
52859.0,STARLINK-4196,PAYLOAD,2022-11-19 05:55:39,15.08839601,0.0001835,53.2186,40.0396,40.8422,319.2707,0.00016948,2.410000000000001e-05,0.0,0 STARLINK-4196,1 52859U 22062AF  22323.24698469  .00002410  00000-0  16948-3 0  9999,2 52859  53.2186  40.0396 0001835  40.8422 319.2707 15.08839601 24281,6917.882,95.438,541.016,538.477,0.0
52859.0,STARLINK-4196,PAYLOAD,2022-11-19 12:17:12,15.08837187,0.0001883,53.2188,38.8502,37.5948,322.5176,0.00013619,1.88e-05,0.0,0 STARLINK-4196,1 52859U 22062AF  22323.51194773  .00001880  00000-0  13619-3 0  9990,2 52859  53.2188  38.8502 0001883  37.5948 322.5176 15.08837187 23830,6917.889,95.438,541.057,538.451,0.0
52859.0,STARLINK-4196,PAYLOAD,2022-11-20 05:46:26,15.08836193,0.000192,53.2183,35.5791,32.2998,327.8111,8.9362e-05,1.134e-05,0.0,0 STARLINK-4196,1 52859U 22062AF  22324.24058999  .00001134  00000-0  89362-4 0  9991,2 52859  53.2183  35.5791 0001920  32.2998 327.8111 15.08836193 24438,6917.892,95.438,541.085,538.429,0.0
52859.0,STARLINK-4196,PAYLOAD,2022-11-20 10:32:36,15.08834894,0.0001956,53.2183,34.6871,32.7656,327.3457,7.398e-05,8.89e-06,0.0,0 STARLINK-4196,1 52859U 22062AF  22324.43931208  .00000889  00000-0  73980-4 0  9990,2 52859  53.2183  34.6871 0001956  32.7656 327.3457 15.08834894 23974,6917.896,95.438,541.114,538.408,0.0
52859.0,STARLINK-4196,PAYLOAD,2022-11-20 15:18:46,15.0883434,0.0001977,53.2183,33.7951,33.1511,326.9605,6.3213e-05,7.18e-06,0.0,0 STARLINK-4196,1 52859U 22062AF  22324.63803325  .00000718  00000-0  63213-4 0  9999,2 52859  53.2183  33.7951 0001977  33.1511 326.9605 15.08834340 24002,6917.898,95.438,541.13,538.395,0.0
52859.0,STARLINK-4196,PAYLOAD,2022-11-21 10:23:24,15.08834824,0.0002062,53.221,30.2289,42.4127,317.7025,-7.5034e-06,-4.08e-06,0.0,0 STARLINK-4196,1 52859U 22062AF  22325.43291697 -.00000408  00000-0 -75034-5 0  9994,2 52859  53.2210  30.2289 0002062  42.4127 317.7025 15.08834824 24619,6917.896,95.438,541.188,538.335,0.0
52859.0,STARLINK-4196,PAYLOAD,2022-11-21 11:58:47,15.08836577,0.000208,53.2208,29.9314,40.898,319.2168,-2.4479e-05,-6.78e-06,0.0,0 STARLINK-4196,1 52859U 22062AF  22325.49915643 -.00000678  00000-0 -24479-4 0  9999,2 52859  53.2208  29.9314 0002080  40.8980 319.2168 15.08836577 24138,6917.891,95.438,541.195,538.317,0.0
52859.0,STARLINK-4196,PAYLOAD,2022-11-21 21:31:05,15.08841329,0.0002092,53.2199,28.1464,40.6637,319.4511,6.669e-05,7.73e-06,0.0,0 STARLINK-4196,1 52859U 22062AF  22325.89659120  .00000773  00000-0  66690-4 0  9993,2 52859  53.2199  28.1464 0002092  40.6637 319.4511 15.08841329 24195,6917.876,95.437,541.189,538.294,0.0
52859.0,STARLINK-4196,PAYLOAD,2022-11-22 03:52:37,15.08842547,0.000204,53.2192,26.956,40.3613,319.7531,0.00014033,1.946e-05,0.0,0 STARLINK-4196,1 52859U 22062AF  22326.16154738  .00001946  00000-0  14033-3 0  9995,2 52859  53.2192  26.9560 0002040  40.3613 319.7531 15.08842547 24722,6917.873000000001,95.437,541.149,538.326,0.0
52859.0,STARLINK-4196,PAYLOAD,2022-11-22 11:49:33,15.08840954,0.0002033,53.2198,25.4704,36.0271,324.0857,0.00010702,1.415e-05,0.0,0 STARLINK-4196,1 52859U 22062AF  22326.49274994  .00001415  00000-0  10702-3 0  9998,2 52859  53.2198  25.4704 0002033  36.0271 324.0857 15.08840954 24287,6917.877,95.437,541.149,538.336,0.0
52859.0,STARLINK-4196,PAYLOAD,2022-11-23 03:43:25,15.0883844,0.0002252,53.2196,22.4967,41.4555,318.6608,2.7189e-05,1.44e-06,0.0,0 STARLINK-4196,1 52859U 22062AF  22327.15515466  .00000144  00000-0  27189-4 0  9990,2 52859  53.2196  22.4967 0002252  41.4555 318.6608 15.08838440 24876,6917.885,95.438,541.308,538.192,0.0
52859.0,STARLINK-4196,PAYLOAD,2022-11-23 10:04:58,15.08832818,0.0002039,53.2192,21.3067,35.9132,324.1997,8.5655e-05,1.075e-05,0.0,0 STARLINK-4196,1 52859U 22062AF  22327.42011715  .00001075  00000-0  85655-4 0  9994,2 52859  53.2192  21.3067 0002039  35.9132 324.1997 15.08832818 24420,6917.901999999999,95.438,541.178,538.357,0.0
52859.0,STARLINK-4196,PAYLOAD,2022-11-23 13:15:44,15.0883657,0.0002104,53.2192,20.7118,33.7406,326.372,5.5263e-05,5.91e-06,0.0,0 STARLINK-4196,1 52859U 22062AF  22327.55259599  .00000591  00000-0  55263-4 0  9996,2 52859  53.2192  20.7118 0002104  33.7406 326.3720 15.08836570 24442,6917.891,95.438,541.211,538.3,0.0
52859.0,STARLINK-4196,PAYLOAD,2022-11-24 09:55:45,15.08838799,0.0002142,53.2193,16.8463,33.7267,326.3862,-2.1221e-05,-6.26e-06,0.0,0 STARLINK-4196,1 52859U 22062AF  22328.41371691 -.00000626  00000-0 -21221-4 0  9998,2 52859  53.2193  16.8463 0002142  33.7267 326.3862 15.08838799 25060,6917.884,95.438,541.231,538.2669999999998,0.0
52859.0,STARLINK-4196,PAYLOAD,2022-11-25 09:46:32,15.08834256,0.000225,53.2193,12.3862,35.2274,324.8867,3.1862e-05,2.19e-06,0.0,0 STARLINK-4196,1 52859U 22062AF  22329.40731957  .00000219  00000-0  31862-4 0  9991,2 52859  53.2193  12.3862 0002250  35.2274 324.8867 15.08834256 24723,6917.898,95.438,541.319,538.206,0.0
52859.0,STARLINK-4196,PAYLOAD,2022-11-26 09:37:18,15.08843105,0.0002257,53.2189,7.9248,35.0955,325.0186,0.00011587,1.556e-05,0.0,0 STARLINK-4196,1 52859U 22062AF  22330.40091184  .00001556  00000-0  11587-3 0  9990,2 52859  53.2189   7.9248 0002257  35.0955 325.0186 15.08843105 25368,6917.871,95.437,541.297,538.175,0.0
52859.0,STARLINK-4196,PAYLOAD,2022-11-26 11:12:42,15.08839906,0.0002271,53.2188,7.6279,33.9402,326.1735,9.0667e-05,1.155e-05,0.0,0 STARLINK-4196,1 52859U 22062AF  22330.46715462  .00001155  00000-0  90667-4 0  9990,2 52859  53.2188   7.6279 0002271  33.9402 326.1735 15.08839906 24880,6917.880999999999,95.438,541.317,538.175,0.0
52859.0,STARLINK-4196,PAYLOAD,2022-11-26 19:09:37,15.08840988,0.0002306,53.2188,6.1411,34.8244,325.2899,8.1948e-05,1.016e-05,0.0,0 STARLINK-4196,1 52859U 22062AF  22330.79835417  .00001016  00000-0  81948-4 0  9997,2 52859  53.2188   6.1411 0002306  34.8244 325.2899 15.08840988 24934,6917.877,95.437,541.3380000000002,538.1469999999998,0.0
52859.0,STARLINK-4196,PAYLOAD,2022-11-27 03:06:33,15.08836929,0.0002284,53.2183,4.6553,34.7789,325.3353,0.00011413,1.528e-05,0.0,0 STARLINK-4196,1 52859U 22062AF  22331.12955470  .00001528  00000-0  11413-3 0  9994,2 52859  53.2183   4.6553 0002284  34.7789 325.3353 15.08836929 25473,6917.89,95.438,541.335,538.175,0.0
52859.0,STARLINK-4196,PAYLOAD,2022-11-27 11:03:29,15.08831039,0.0002297,53.2182,3.168,33.8306,326.2832,4.5698e-05,4.39e-06,0.0,0 STARLINK-4196,1 52859U 22062AF  22331.46076064  .00000439  00000-0  45698-4 0  9997,2 52859  53.2182   3.1680 0002297  33.8306 326.2832 15.08831039 25521,6917.908,95.438,541.362,538.184,0.0
52859.0,STARLINK-4196,PAYLOAD,2022-11-27 19:00:26,15.08827146,0.0002332,53.2186,1.6812,34.7515,325.363,-7.2991e-05,-1.449e-05,0.0,0 STARLINK-4196,1 52859U 22062AF  22331.79196910 -.00001449  00000-0 -72991-4 0  9996,2 52859  53.2186   1.6812 0002332  34.7515 325.3630 15.08827146 25572,6917.92,95.438,541.398,538.1709999999998,0.0
52859.0,STARLINK-4196,PAYLOAD,2022-11-28 10:54:16,15.08839759,0.0002557,53.2191,358.7071,34.9535,325.1624,3.3871e-06,-2.35e-06,0.0,0 STARLINK-4196,1 52859U 22062AF  22332.45436144 -.00000235  00000-0  33871-5 0  9992,2 52859  53.2191 358.7071 0002557  34.9535 325.1624 15.08839759 25679,6917.880999999999,95.438,541.515,537.977,0.0
52859.0,STARLINK-4196,PAYLOAD,2022-11-29 01:12:44,15.08839586,0.000243,53.2194,356.0313,35.1254,324.9898,6.1152e-05,6.85e-06,0.0,0 STARLINK-4196,1 52859U 22062AF  22333.05051945  .00000685  00000-0  61152-4 0  9991,2 52859  53.2194 356.0313 0002430  35.1254 324.9898 15.08839586 25277,6917.882,95.438,541.428,538.066,0.0
52859.0,STARLINK-4196,PAYLOAD,2022-11-29 18:41:59,15.08844401,0.0002469,53.2193,352.7601,36.1194,323.9965,6.653e-05,7.71e-06,0.0,0 STARLINK-4196,1 52859U 22062AF  22333.77915843  .00000771  00000-0  66530-4 0  9997,2 52859  53.2193 352.7601 0002469  36.1194 323.9965 15.08844401 25877,6917.8669999999975,95.437,541.44,538.024,0.0
52859.0,STARLINK-4196,PAYLOAD,2022-11-30 01:03:32,15.08836701,0.0002467,53.2187,351.5711,36.7385,323.3776,7.9823e-05,9.82e-06,0.0,0 STARLINK-4196,1 52859U 22062AF  22334.04412446  .00000982  00000-0  79823-4 0  9992,2 52859  53.2187 351.5711 0002467  36.7385 323.3776 15.08836701 25918,6917.89,95.438,541.462,538.049,0.0
52859.0,STARLINK-4196,PAYLOAD,2022-11-30 09:00:28,15.08833376,0.0002388,53.2182,350.084,35.0702,325.0447,2.698e-05,1.41e-06,0.0,0 STARLINK-4196,1 52859U 22062AF  22334.37532830  .00000141  00000-0  26980-4 0  9991,2 52859  53.2182 350.0840 0002388  35.0702 325.0447 15.08833376 25477,6917.901,95.438,541.418,538.114,0.0
52859.0,STARLINK-4196,PAYLOAD,2022-11-30 18:32:46,15.08843028,0.0002409,53.2187,348.2995,34.5726,325.5422,7.3211e-05,8.77e-06,0.0,0 STARLINK-4196,1 52859U 22062AF  22334.77276119  .00000877  00000-0  73211-4 0  9995,2 52859  53.2187 348.2995 0002409  34.5726 325.5422 15.08843028 25536,6917.871,95.437,541.403,538.07,0.0
52859.0,STARLINK-4196,PAYLOAD,2022-12-01 07:15:51,15.08839232,0.0002337,53.2188,345.9205,34.5094,325.6049,6.653199999999999e-05,7.71e-06,0.0,0 STARLINK-4196,1 52859U 22062AF  22335.30268303  .00000771  00000-0  66532-4 0  9992,2 52859  53.2188 345.9205 0002337  34.5094 325.6049 15.08839232 25610,6917.8830000000025,95.438,541.364,538.131,0.0
52859.0,STARLINK-4196,PAYLOAD,2022-12-01 18:23:33,15.08844648,0.0002077,53.219,343.8396,39.0021,321.112,4.985e-05,5.05e-06,0.0,0 STARLINK-4196,1 52859U 22062AF  22335.76635911  .00000505  00000-0  49850-4 0  9994,2 52859  53.2190 343.8396 0002077  39.0021 321.1120 15.08844648 26172,6917.866,95.437,541.168,538.294,0.0
52859.0,STARLINK-4196,PAYLOAD,2022-12-02 07:06:38,15.08841526,0.0002369,53.2194,341.4601,35.3043,324.8106,0.00011607,1.56e-05,0.0,0 STARLINK-4196,1 52859U 22062AF  22336.29627913  .00001560  00000-0  11607-3 0  9996,2 52859  53.2194 341.4601 0002369  35.3043 324.8106 15.08841526 25766,6917.876,95.437,541.38,538.102,0.0
